[{"OBJECT_NAME":"STARLINK-36120","OBJECT_ID":"2025-293P","EPOCH":"2026-03-09T19:10:56.604000","MEAN_MOTION":14.98335584,"ECCENTRICITY":0.00034813,"INCLINATION":70.0009,"RA_OF_ASC_NODE":94.2038,"ARG_OF_PERICENTER":267.624,"MEAN_ANOMALY":92.4521,"EPHEMERIS_TYPE":0,"CLASSIFICATION_TYPE":"U","NORAD_CAT_ID":67016,"ELEMENT_SET_NO":999,"REV_AT_EPOCH":1490,"BSTAR":0.00033786536,"MEAN_MOTION_DOT":3.941e-5,"MEAN_MOTION_DDOT":0},{"OBJECT_NAME":"COSMOS 375 DEB","OBJECT_ID":"1970-091H","EPOCH":"2026-03-09T13:56:42.077184","MEAN_MOTION":14.60451332,"ECCENTRICITY":0.0264087,"INCLINATION":62.7485,"RA_OF_ASC_NODE":160.0286,"ARG_OF_PERICENTER":210.3604,"MEAN_ANOMALY":148.1954,"EPHEMERIS_TYPE":0,"CLASSIFICATION_TYPE":"U","NORAD_CAT_ID":4628,"ELEMENT_SET_NO":999,"REV_AT_EPOCH":74903,"BSTAR":0.0018248,"MEAN_MOTION_DOT":0.00014425,"MEAN_MOTION_DDOT":0}]
